{
  "norad_id": 68520,
  "name": "STARLINK-37126",
  "history": [
    {
      "epoch": "2026-04-07T04:21:45.715968Z",
      "apogee_km": 295.57551052507824,
      "perigee_km": 293.354868516406,
      "latitude_deg": 5.150999461403294e-05,
      "longitude_deg": 105.66129893033538,
      "height_km": 294.38268623796705,
      "semi_major_axis_km": 6672.602189520742,
      "eccentricity": 0.0001664,
      "inclination_deg": 53.1612,
      "raan_deg": 6.5641,
      "arg_perigee_deg": 25.0676,
      "mean_anomaly_deg": 335.0433,
      "mean_motion_rev_day": 15.92795102
    }
  ]
}