STARLINK-37126          
1 68520U 26068N   26097.18177912 -.00193263  23299-4 -53519-3 0  9994
2 68520  53.1612   6.5641 0001664  25.0676 335.0433 15.92795102  1177
